[{"OBJECT_NAME":"ONEWEB-0703","OBJECT_ID":"2023-068Q","EPOCH":"2026-02-01T17:22:39.967680","MEAN_MOTION":13.15548494,"ECCENTRICITY":0.00010063,"INCLINATION":87.8992,"RA_OF_ASC_NODE":286.2526,"ARG_OF_PERICENTER":37.0313,"MEAN_ANOMALY":323.0887,"EPHEMERIS_TYPE":0,"CLASSIFICATION_TYPE":"U","NORAD_CAT_ID":56724,"ELEMENT_SET_NO":999,"REV_AT_EPOCH":13144,"BSTAR":-0.00017592907,"MEAN_MOTION_DOT":-5.3e-7,"MEAN_MOTION_DDOT":0},{"OBJECT_NAME":"ONEWEB-0721","OBJECT_ID":"2023-068R","EPOCH":"2026-02-01T18:50:36.301632","MEAN_MOTION":13.22458558,"ECCENTRICITY":0.00017128,"INCLINATION":86.6816,"RA_OF_ASC_NODE":128.7351,"ARG_OF_PERICENTER":107.2743,"MEAN_ANOMALY":252.8578,"EPHEMERIS_TYPE":0,"CLASSIFICATION_TYPE":"U","NORAD_CAT_ID":56725,"ELEMENT_SET_NO":999,"REV_AT_EPOCH":14004,"BSTAR":-0.00014982051,"MEAN_MOTION_DOT":-4.8e-7,"MEAN_MOTION_DDOT":0},{"OBJECT_NAME":"ONEWEB-0015","OBJECT_ID":"2024-188A","EPOCH":"2026-02-01T23:00:57.337344","MEAN_MOTION":13.11415749,"ECCENTRICITY":0.00022491,"INCLINATION":87.8813,"RA_OF_ASC_NODE":48.0063,"ARG_OF_PERICENTER":77.8183,"MEAN_ANOMALY":282.3197,"EPHEMERIS_TYPE":0,"CLASSIFICATION_TYPE":"U","NORAD_CAT_ID":61594,"ELEMENT_SET_NO":999,"REV_AT_EPOCH":6673,"BSTAR":0.00098057054,"MEAN_MOTION_DOT":3.6e-6,"MEAN_MOTION_DDOT":0},{"OBJECT_NAME":"ONEWEB-0687","OBJECT_ID":"2024-188B","EPOCH":"2026-02-01T21:54:00.852768","MEAN_MOTION":13.17651307,"ECCENTRICITY":0.00024201,"INCLINATION":87.9084,"RA_OF_ASC_NODE":32.7665,"ARG_OF_PERICENTER":89.0713,"MEAN_ANOMALY":271.0696,"EPHEMERIS_TYPE":0,"CLASSIFICATION_TYPE":"U","NORAD_CAT_ID":61595,"ELEMENT_SET_NO":999,"REV_AT_EPOCH":6808,"BSTAR":0.00012015607,"MEAN_MOTION_DOT":6.0e-7,"MEAN_MOTION_DDOT":0},{"OBJECT_NAME":"ONEWEB-0688","OBJECT_ID":"2024-188C","EPOCH":"2026-02-01T22:35:20.659776","MEAN_MOTION":13.1764785,"ECCENTRICITY":0.00028228,"INCLINATION":87.908,"RA_OF_ASC_NODE":32.7603,"ARG_OF_PERICENTER":67.0713,"MEAN_ANOMALY":293.0717,"EPHEMERIS_TYPE":0,"CLASSIFICATION_TYPE":"U","NORAD_CAT_ID":61596,"ELEMENT_SET_NO":999,"REV_AT_EPOCH":6808,"BSTAR":6.3003373e-5,"MEAN_MOTION_DOT":3.7e-7,"MEAN_MOTION_DDOT":0},{"OBJECT_NAME":"ONEWEB-0689","OBJECT_ID":"2024-188D","EPOCH":"2026-02-01T18:20:09.950784","MEAN_MOTION":13.11417078,"ECCENTRICITY":0.00021255,"INCLINATION":87.8823,"RA_OF_ASC_NODE":47.9812,"ARG_OF_PERICENTER":96.8833,"MEAN_ANOMALY":263.2537,"EPHEMERIS_TYPE":0,"CLASSIFICATION_TYPE":"U","NORAD_CAT_ID":61597,"ELEMENT_SET_NO":999,"REV_AT_EPOCH":6670,"BSTAR":-0.0012860706,"MEAN_MOTION_DOT":-4.43e-6,"MEAN_MOTION_DDOT":0},{"OBJECT_NAME":"ONEWEB-0690","OBJECT_ID":"2024-188E","EPOCH":"2026-02-01T22:14:33.858528","MEAN_MOTION":13.11418207,"ECCENTRICITY":0.00012079,"INCLINATION":87.8829,"RA_OF_ASC_NODE":47.9687,"ARG_OF_PERICENTER":79.4919,"MEAN_ANOMALY":280.6345,"EPHEMERIS_TYPE":0,"CLASSIFICATION_TYPE":"U","NORAD_CAT_ID":61598,"ELEMENT_SET_NO":999,"REV_AT_EPOCH":6690,"BSTAR":-0.00037600665,"MEAN_MOTION_DOT":-1.21e-6,"MEAN_MOTION_DDOT":0},{"OBJECT_NAME":"ONEWEB-0691","OBJECT_ID":"2024-188F","EPOCH":"2026-02-01T12:57:54.157824","MEAN_MOTION":13.11418747,"ECCENTRICITY":0.00021743,"INCLINATION":87.8833,"RA_OF_ASC_NODE":47.9441,"ARG_OF_PERICENTER":83.3625,"MEAN_ANOMALY":276.775,"EPHEMERIS_TYPE":0,"CLASSIFICATION_TYPE":"U","NORAD_CAT_ID":61599,"ELEMENT_SET_NO":999,"REV_AT_EPOCH":6670,"BSTAR":-0.00060336491,"MEAN_MOTION_DOT":-2.01e-6,"MEAN_MOTION_DDOT":0},{"OBJECT_NAME":"ONEWEB-0692","OBJECT_ID":"2024-188G","EPOCH":"2026-02-01T22:36:32.632704","MEAN_MOTION":13.11417007,"ECCENTRICITY":0.00019498,"INCLINATION":87.8814,"RA_OF_ASC_NODE":48.0034,"ARG_OF_PERICENTER":119.3415,"MEAN_ANOMALY":240.7908,"EPHEMERIS_TYPE":0,"CLASSIFICATION_TYPE":"U","NORAD_CAT_ID":61600,"ELEMENT_SET_NO":999,"REV_AT_EPOCH":6674,"BSTAR":0.0012432125,"MEAN_MOTION_DOT":4.53e-6,"MEAN_MOTION_DDOT":0},{"OBJECT_NAME":"ONEWEB-0693","OBJECT_ID":"2024-188H","EPOCH":"2026-02-01T22:52:20.788896","MEAN_MOTION":13.17646889,"ECCENTRICITY":0.00013428,"INCLINATION":87.908,"RA_OF_ASC_NODE":32.7796,"ARG_OF_PERICENTER":64.1043,"MEAN_ANOMALY":296.0227,"EPHEMERIS_TYPE":0,"CLASSIFICATION_TYPE":"U","NORAD_CAT_ID":61601,"ELEMENT_SET_NO":999,"REV_AT_EPOCH":6807,"BSTAR":1.5523536e-5,"MEAN_MOTION_DOT":1.9e-7,"MEAN_MOTION_DDOT":0},{"OBJECT_NAME":"ONEWEB-0695","OBJECT_ID":"2024-188J","EPOCH":"2026-02-01T12:52:59.902752","MEAN_MOTION":13.11416396,"ECCENTRICITY":0.00021286,"INCLINATION":87.8813,"RA_OF_ASC_NODE":48.0745,"ARG_OF_PERICENTER":105.0286,"MEAN_ANOMALY":255.1078,"EPHEMERIS_TYPE":0,"CLASSIFICATION_TYPE":"U","NORAD_CAT_ID":61602,"ELEMENT_SET_NO":999,"REV_AT_EPOCH":6668,"BSTAR":-0.00089337478,"MEAN_MOTION_DOT":-3.04e-6,"MEAN_MOTION_DDOT":0},{"OBJECT_NAME":"ONEWEB-0697","OBJECT_ID":"2024-188K","EPOCH":"2026-02-01T22:48:45.301248","MEAN_MOTION":13.11415965,"ECCENTRICITY":0.00018633,"INCLINATION":87.8813,"RA_OF_ASC_NODE":47.9816,"ARG_OF_PERICENTER":116.4596,"MEAN_ANOMALY":243.6723,"EPHEMERIS_TYPE":0,"CLASSIFICATION_TYPE":"U","NORAD_CAT_ID":61603,"ELEMENT_SET_NO":999,"REV_AT_EPOCH":6672,"BSTAR":0.001405859,"MEAN_MOTION_DOT":5.11e-6,"MEAN_MOTION_DDOT":0},{"OBJECT_NAME":"ONEWEB-0698","OBJECT_ID":"2024-188L","EPOCH":"2026-02-01T22:17:00.343680","MEAN_MOTION":13.11418775,"ECCENTRICITY":0.00010384,"INCLINATION":87.8815,"RA_OF_ASC_NODE":48.0011,"ARG_OF_PERICENTER":127.6811,"MEAN_ANOMALY":232.4411,"EPHEMERIS_TYPE":0,"CLASSIFICATION_TYPE":"U","NORAD_CAT_ID":61604,"ELEMENT_SET_NO":999,"REV_AT_EPOCH":6674,"BSTAR":3.700536e-6,"MEAN_MOTION_DOT":1.4e-7,"MEAN_MOTION_DDOT":0},{"OBJECT_NAME":"ONEWEB-0699","OBJECT_ID":"2024-188M","EPOCH":"2026-02-01T14:30:37.340640","MEAN_MOTION":13.10375183,"ECCENTRICITY":0.00017513,"INCLINATION":87.8762,"RA_OF_ASC_NODE":63.282,"ARG_OF_PERICENTER":116.9376,"MEAN_ANOMALY":243.193,"EPHEMERIS_TYPE":0,"CLASSIFICATION_TYPE":"U","NORAD_CAT_ID":61605,"ELEMENT_SET_NO":999,"REV_AT_EPOCH":6555,"BSTAR":0.0020331479,"MEAN_MOTION_DOT":7.22e-6,"MEAN_MOTION_DDOT":0},{"OBJECT_NAME":"ONEWEB-0700","OBJECT_ID":"2024-188N","EPOCH":"2026-02-01T14:33:01.003968","MEAN_MOTION":13.10378171,"ECCENTRICITY":0.00022176,"INCLINATION":87.8775,"RA_OF_ASC_NODE":63.172,"ARG_OF_PERICENTER":113.0424,"MEAN_ANOMALY":247.0937,"EPHEMERIS_TYPE":0,"CLASSIFICATION_TYPE":"U","NORAD_CAT_ID":61606,"ELEMENT_SET_NO":999,"REV_AT_EPOCH":6554,"BSTAR":0.0019498081,"MEAN_MOTION_DOT":6.93e-6,"MEAN_MOTION_DDOT":0},{"OBJECT_NAME":"ONEWEB-0701","OBJECT_ID":"2024-188P","EPOCH":"2026-02-01T13:06:56.541600","MEAN_MOTION":13.10371416,"ECCENTRICITY":0.00017866,"INCLINATION":87.8759,"RA_OF_ASC_NODE":63.2934,"ARG_OF_PERICENTER":122.7253,"MEAN_ANOMALY":237.4046,"EPHEMERIS_TYPE":0,"CLASSIFICATION_TYPE":"U","NORAD_CAT_ID":61607,"ELEMENT_SET_NO":999,"REV_AT_EPOCH":6554,"BSTAR":0.00053288225,"MEAN_MOTION_DOT":1.99e-6,"MEAN_MOTION_DDOT":0},{"OBJECT_NAME":"ONEWEB-0702","OBJECT_ID":"2024-188Q","EPOCH":"2026-02-01T23:22:55.020288","MEAN_MOTION":13.11415537,"ECCENTRICITY":0.00021508,"INCLINATION":87.8826,"RA_OF_ASC_NODE":47.8748,"ARG_OF_PERICENTER":119.5544,"MEAN_ANOMALY":240.5799,"EPHEMERIS_TYPE":0,"CLASSIFICATION_TYPE":"U","NORAD_CAT_ID":61608,"ELEMENT_SET_NO":999,"REV_AT_EPOCH":6676,"BSTAR":-0.00062247643,"MEAN_MOTION_DOT":-2.08e-6,"MEAN_MOTION_DDOT":0}]
