ONEWEB-0703             
1 56724U 23068Q   26032.72407370 -.00000053  00000+0 -17593-3 0  9993
2 56724  87.8992 286.2526 0001006  37.0313 323.0887 13.15548494131442
ONEWEB-0721             
1 56725U 23068R   26032.78514238 -.00000048  00000+0 -14982-3 0  9995
2 56725  86.6816 128.7351 0001712 107.2743 252.8578 13.22458558140043
ONEWEB-0015             
1 61594U 24188A   26032.95899696  .00000360  00000+0  98057-3 0  9992
2 61594  87.8813  48.0063 0002249  77.8183 282.3197 13.11415749 66734
ONEWEB-0687             
1 61595U 24188B   26032.91250987  .00000060  00000+0  12016-3 0  9991
2 61595  87.9084  32.7665 0002420  89.0713 271.0696 13.17651307 68086
ONEWEB-0688             
1 61596U 24188C   26032.94121134  .00000037  00000+0  63003-4 0  9993
2 61596  87.9080  32.7603 0002822  67.0713 293.0717 13.17647850 68083
ONEWEB-0689             
1 61597U 24188D   26032.76400406 -.00000443  00000+0 -12861-2 0  9993
2 61597  87.8823  47.9812 0002125  96.8833 263.2537 13.11417078 66704
ONEWEB-0690             
1 61598U 24188E   26032.92678077 -.00000121  00000+0 -37601-3 0  9996
2 61598  87.8829  47.9687 0001207  79.4919 280.6345 13.11418207 66900
ONEWEB-0691             
1 61599U 24188F   26032.54021016 -.00000201  00000+0 -60336-3 0  9990
2 61599  87.8833  47.9441 0002174  83.3625 276.7750 13.11418747 66709
ONEWEB-0692             
1 61600U 24188G   26032.94204436  .00000453  00000+0  12432-2 0  9996
2 61600  87.8814  48.0034 0001949 119.3415 240.7908 13.11417007 66745
ONEWEB-0693             
1 61601U 24188H   26032.95301839  .00000019  00000+0  15524-4 0  9998
2 61601  87.9080  32.7796 0001342  64.1043 296.0227 13.17646889 68072
ONEWEB-0695             
1 61602U 24188J   26032.53680443 -.00000304  00000+0 -89337-3 0  9995
2 61602  87.8813  48.0745 0002128 105.0286 255.1078 13.11416396 66684
ONEWEB-0697             
1 61603U 24188K   26032.95052432  .00000511  00000+0  14059-2 0  9999
2 61603  87.8813  47.9816 0001863 116.4596 243.6723 13.11415965 66722
ONEWEB-0698             
1 61604U 24188L   26032.92847620  .00000014  00000+0  37005-5 0  9995
2 61604  87.8815  48.0011 0001038 127.6811 232.4411 13.11418775 66746
ONEWEB-0699             
1 61605U 24188M   26032.60459885  .00000722  00000+0  20331-2 0  9990
2 61605  87.8762  63.2820 0001751 116.9376 243.1930 13.10375183 65551
ONEWEB-0700             
1 61606U 24188N   26032.60626162  .00000693  00000+0  19498-2 0  9994
2 61606  87.8775  63.1720 0002217 113.0424 247.0937 13.10378171 65543
ONEWEB-0701             
1 61607U 24188P   26032.54648775  .00000199  00000+0  53288-3 0  9999
2 61607  87.8759  63.2934 0001786 122.7253 237.4046 13.10371416 65540
ONEWEB-0702             
1 61608U 24188Q   26032.97424792 -.00000208  00000+0 -62248-3 0  9997
2 61608  87.8826  47.8748 0002150 119.5544 240.5799 13.11415537 66769
